start=new Date('2022-03-28T00:00:00.000Z').valueOf();
sats=[{"APOAPSIS":"548.367","SITE":"AFETR","EPHEMERIS_TYPE":"0","DECAY_DATE":null,"BSTAR":"0.00022376000000","SEMIMAJOR_AXIS":"6925.347","MEAN_ANOMALY":"305.9115","TLE_LINE2":"2 46326  53.0573  13.7830 0001668  54.2029 305.9115 15.06400640 86847","TLE_LINE1":"1 46326U 20062B   22086.84766726  .00003053  00000-0  22376-3 0  9999","MEAN_MOTION_DDOT":"0.0000000000000","ARG_OF_PERICENTER":"54.2029","FILE":"3377053","LAUNCH_DATE":"2020-09-03","OBJECT_TYPE":"PAYLOAD","RCS_SIZE":"LARGE","EPOCH":"2022-03-27T20:20:38.451264","TIME_SYSTEM":"UTC","NORAD_CAT_ID":"46326","OBJECT_ID":"2020-062B","REV_AT_EPOCH":"8684","OBJECT_NAME":"STARLINK-1654","ECCENTRICITY":"0.00016680","PERIAPSIS":"546.056","RA_OF_ASC_NODE":"13.7830","REF_FRAME":"TEME","MEAN_MOTION_DOT":"0.00003053","MEAN_ELEMENT_THEORY":"SGP4","PERIOD":"95.592","ELEMENT_SET_NO":"999","COUNTRY_CODE":"US","CENTER_NAME":"EARTH","GP_ID":"199861204","MEAN_MOTION":"15.06400640","INCLINATION":"53.0573","CLASSIFICATION_TYPE":"U"},{"ARG_OF_PERICENTER":"62.0450","FILE":"3376257","LAUNCH_DATE":"2020-09-03","OBJECT_TYPE":"PAYLOAD","RCS_SIZE":"LARGE","EPOCH":"2022-03-27T11:52:27.842880","NORAD_CAT_ID":"46327","TIME_SYSTEM":"UTC","OBJECT_ID":"2020-062C","APOAPSIS":"548.180","SITE":"AFETR","EPHEMERIS_TYPE":"0","BSTAR":"0.00008746500000","DECAY_DATE":null,"TLE_LINE2":"2 46327  53.0556  15.3854 0001378  62.0450 298.0678 15.06395912 86960","TLE_LINE1":"1 46327U 20062C   22086.49476670  .00001021  00000-0  87465-4 0  9991","MEAN_ANOMALY":"298.0678","SEMIMAJOR_AXIS":"6925.361","MEAN_MOTION_DDOT":"0.0000000000000","CLASSIFICATION_TYPE":"U","PERIAPSIS":"546.272","RA_OF_ASC_NODE":"15.3854","ECCENTRICITY":"0.00013780","REF_FRAME":"TEME","REV_AT_EPOCH":"8696","OBJECT_NAME":"STARLINK-1673","MEAN_MOTION_DOT":"0.00001021","ELEMENT_SET_NO":"999","PERIOD":"95.592","MEAN_ELEMENT_THEORY":"SGP4","COUNTRY_CODE":"US","CENTER_NAME":"EARTH","MEAN_MOTION":"15.06395912","GP_ID":"199797687","INCLINATION":"53.0556"},{"OBJECT_ID":"2020-062D","RCS_SIZE":"LARGE","EPOCH":"2022-03-27T20:56:30.475680","NORAD_CAT_ID":"46328","TIME_SYSTEM":"UTC","LAUNCH_DATE":"2020-09-03","OBJECT_TYPE":"PAYLOAD","ARG_OF_PERICENTER":"45.9373","FILE":"3377053","MEAN_MOTION_DDOT":"0.0000000000000","BSTAR":"0.00011096000000","DECAY_DATE":null,"TLE_LINE1":"1 46328U 20062D   22086.87257495  .00001371  00000-0  11096-3 0  9990","TLE_LINE2":"2 46328  53.0561 353.6802 0001976  45.9373 314.1778 15.06399128 87129","MEAN_ANOMALY":"314.1778","SEMIMAJOR_AXIS":"6925.351","EPHEMERIS_TYPE":"0","SITE":"AFETR","APOAPSIS":"548.585","CLASSIFICATION_TYPE":"U","MEAN_MOTION":"15.06399128","GP_ID":"199860203","INCLINATION":"53.0561","COUNTRY_CODE":"US","CENTER_NAME":"EARTH","MEAN_MOTION_DOT":"0.00001371","ELEMENT_SET_NO":"999","MEAN_ELEMENT_THEORY":"SGP4","PERIOD":"95.592","REF_FRAME":"TEME","PERIAPSIS":"545.848","RA_OF_ASC_NODE":"353.6802","ECCENTRICITY":"0.00019760","OBJECT_NAME":"STARLINK-1686","REV_AT_EPOCH":"8712"},{"DECAY_DATE":null,"BSTAR":"0.00038232000000","SEMIMAJOR_AXIS":"6925.331","TLE_LINE2":"2 46329  53.0558 353.5239 0001715  54.6656 305.4493 15.06405847 87124","MEAN_ANOMALY":"305.4493","TLE_LINE1":"1 46329U 20062E   22086.90574649  .00005419  00000-0  38232-3 0  9996","MEAN_MOTION_DDOT":"0.0000000000000","APOAPSIS":"548.383","SITE":"AFETR","EPHEMERIS_TYPE":"0","EPOCH":"2022-03-27T21:44:16.496736","RCS_SIZE":"LARGE","TIME_SYSTEM":"UTC","NORAD_CAT_ID":"46329","OBJECT_ID":"2020-062E","ARG_OF_PERICENTER":"54.6656","FILE":"3377053","LAUNCH_DATE":"2020-09-03","OBJECT_TYPE":"PAYLOAD","COUNTRY_CODE":"US","CENTER_NAME":"EARTH","GP_ID":"199860954","MEAN_MOTION":"15.06405847","INCLINATION":"53.0558","OBJECT_NAME":"STARLINK-1695","REV_AT_EPOCH":"8712","PERIAPSIS":"546.008","REF_FRAME":"TEME","RA_OF_ASC_NODE":"353.5239","ECCENTRICITY":"0.00017150","MEAN_MOTION_DOT":"0.00005419","MEAN_ELEMENT_THEORY":"SGP4","PERIOD":"95.592","ELEMENT_SET_NO":"999","CLASSIFICATION_TYPE":"U"},{"INCLINATION":"53.0560","MEAN_MOTION":"15.06401373","GP_ID":"199861704","CENTER_NAME":"EARTH","COUNTRY_CODE":"US","ELEMENT_SET_NO":"999","PERIOD":"95.592","MEAN_ELEMENT_THEORY":"SGP4","MEAN_MOTION_DOT":"0.00000947","PERIAPSIS":"546.054","REF_FRAME":"TEME","RA_OF_ASC_NODE":"353.5686","ECCENTRICITY":"0.00016680","OBJECT_NAME":"STARLINK-1710","REV_AT_EPOCH":"8713","CLASSIFICATION_TYPE":"U","MEAN_MOTION_DDOT":"0.0000000000000","TLE_LINE1":"1 46330U 20062F   22086.89468406  .00000947  00000-0  82447-4 0  9998","TLE_LINE2":"2 46330  53.0560 353.5686 0001668  60.7517 299.3639 15.06401373 87130","MEAN_ANOMALY":"299.3639","SEMIMAJOR_AXIS":"6925.344","BSTAR":"0.00008244700000","DECAY_DATE":null,"EPHEMERIS_TYPE":"0","APOAPSIS":"548.364","SITE":"AFETR","OBJECT_ID":"2020-062F","NORAD_CAT_ID":"46330","TIME_SYSTEM":"UTC","EPOCH":"2022-03-27T21:28:20.702784","RCS_SIZE":"LARGE","OBJECT_TYPE":"PAYLOAD","LAUNCH_DATE":"2020-09-03","ARG_OF_PERICENTER":"60.7517","FILE":"3377053"},{"CLASSIFICATION_TYPE":"U","PERIAPSIS":"546.035","RA_OF_ASC_NODE":"13.4231","ECCENTRICITY":"0.00016920","REF_FRAME":"TEME","REV_AT_EPOCH":"8685","OBJECT_NAME":"STARLINK-1719","ELEMENT_SET_NO":"999","MEAN_ELEMENT_THEORY":"SGP4","PERIOD":"95.592","MEAN_MOTION_DOT":"0.00005093","COUNTRY_CODE":"US","CENTER_NAME":"EARTH","INCLINATION":"53.0537","MEAN_MOTION":"15.06402219","GP_ID":"199861941","ARG_OF_PERICENTER":"65.2581","FILE":"3377053","OBJECT_TYPE":"PAYLOAD","LAUNCH_DATE":"2020-09-03","NORAD_CAT_ID":"46331","TIME_SYSTEM":"UTC","RCS_SIZE":"LARGE","EPOCH":"2022-03-27T22:18:46.714176","OBJECT_ID":"2020-062G","APOAPSIS":"548.379","SITE":"AFETR","EPHEMERIS_TYPE":"0","TLE_LINE1":"1 46331U 20062G   22086.92970734  .00005093  00000-0  36051-3 0  9991","TLE_LINE2":"2 46331  53.0537  13.4231 0001692  65.2581 294.8584 15.06402219 86858","MEAN_ANOMALY":"294.8584","SEMIMAJOR_AXIS":"6925.342","BSTAR":"0.00036051000000","DECAY_DATE":null,"MEAN_MOTION_DDOT":"0.0000000000000"},{"CLASSIFICATION_TYPE":"U","INCLINATION":"53.0570","GP_ID":"199860703","MEAN_MOTION":"15.06404818","COUNTRY_CODE":"US","CENTER_NAME":"EARTH","PERIOD":"95.592","MEAN_ELEMENT_THEORY":"SGP4","ELEMENT_SET_NO":"999","MEAN_MOTION_DOT":"0.00003750","OBJECT_NAME":"STARLINK-1721","REV_AT_EPOCH":"8683","PERIAPSIS":"546.078","REF_FRAME":"TEME","RA_OF_ASC_NODE":"13.9672","ECCENTRICITY":"0.00016180","OBJECT_ID":"2020-062H","TIME_SYSTEM":"UTC","NORAD_CAT_ID":"46332","RCS_SIZE":"LARGE","EPOCH":"2022-03-27T19:23:37.195296","OBJECT_TYPE":"PAYLOAD","LAUNCH_DATE":"2020-09-03","FILE":"3377053","ARG_OF_PERICENTER":"56.7451","MEAN_MOTION_DDOT":"0.0000000000000","SEMIMAJOR_AXIS":"6925.334","TLE_LINE2":"2 46332  53.0570  13.9672 0001618  56.7451 303.3692 15.06404818 86830","TLE_LINE1":"1 46332U 20062H   22086.80806939  .00003750  00000-0  27046-3 0  9996","MEAN_ANOMALY":"303.3692","DECAY_DATE":null,"BSTAR":"0.00027046000000","EPHEMERIS_TYPE":"0","SITE":"AFETR","APOAPSIS":"548.319"},{"MEAN_MOTION_DDOT":"0.0000000000000","MEAN_ANOMALY":"299.9122","TLE_LINE2":"2 46333  53.0567  15.3963 0001574  60.2023 299.9122 15.06397364 86961","TLE_LINE1":"1 46333U 20062J   22086.49107616  .00002566  00000-0  19112-3 0  9997","SEMIMAJOR_AXIS":"6925.357","BSTAR":"0.00019112000000","DECAY_DATE":null,"EPHEMERIS_TYPE":"0","APOAPSIS":"548.312","SITE":"AFETR","OBJECT_ID":"2020-062J","NORAD_CAT_ID":"46333","TIME_SYSTEM":"UTC","RCS_SIZE":"LARGE","EPOCH":"2022-03-27T11:47:08.980224","OBJECT_TYPE":"PAYLOAD","LAUNCH_DATE":"2020-09-03","FILE":"3376289","ARG_OF_PERICENTER":"60.2023","INCLINATION":"53.0567","MEAN_MOTION":"15.06397364","GP_ID":"199798098","COUNTRY_CODE":"US","CENTER_NAME":"EARTH","ELEMENT_SET_NO":"999","PERIOD":"95.592","MEAN_ELEMENT_THEORY":"SGP4","MEAN_MOTION_DOT":"0.00002566","PERIAPSIS":"546.132","ECCENTRICITY":"0.00015740","RA_OF_ASC_NODE":"15.3963","REF_FRAME":"TEME","OBJECT_NAME":"STARLINK-1723","REV_AT_EPOCH":"8696","CLASSIFICATION_TYPE":"U"},{"OBJECT_ID":"2020-062K","EPOCH":"2022-03-27T22:20:04.263360","RCS_SIZE":"LARGE","NORAD_CAT_ID":"46334","TIME_SYSTEM":"UTC","LAUNCH_DATE":"2020-09-03","OBJECT_TYPE":"PAYLOAD","FILE":"3377053","ARG_OF_PERICENTER":"54.9290","MEAN_MOTION_DDOT":"0.0000000000000","BSTAR":"0.00027255000000","DECAY_DATE":null,"TLE_LINE1":"1 46334U 20062K   22086.93060490  .00003780  00000-0  27255-3 0  9991","TLE_LINE2":"2 46334  53.0554 353.4069 0001731  54.9290 305.1861 15.06400946 87133","MEAN_ANOMALY":"305.1861","SEMIMAJOR_AXIS":"6925.346","EPHEMERIS_TYPE":"0","APOAPSIS":"548.409","SITE":"AFETR","CLASSIFICATION_TYPE":"U","MEAN_MOTION":"15.06400946","GP_ID":"199861205","INCLINATION":"53.0554","CENTER_NAME":"EARTH","COUNTRY_CODE":"US","MEAN_MOTION_DOT":"0.00003780","ELEMENT_SET_NO":"999","PERIOD":"95.592","MEAN_ELEMENT_THEORY":"SGP4","ECCENTRICITY":"0.00017310","PERIAPSIS":"546.012","RA_OF_ASC_NODE":"353.4069","REF_FRAME":"TEME","OBJECT_NAME":"STARLINK-1725","REV_AT_EPOCH":"8713"},{"EPHEMERIS_TYPE":"0","SITE":"AFETR","APOAPSIS":"548.554","MEAN_MOTION_DDOT":"0.0000000000000","BSTAR":"0.00018695000000","DECAY_DATE":null,"TLE_LINE2":"2 46335  53.0567  15.2605 0001930  58.3116 301.8061 15.06398862 86972","MEAN_ANOMALY":"301.8061","TLE_LINE1":"1 46335U 20062L   22086.52056530  .00002504  00000-0  18695-3 0  9998","SEMIMAJOR_AXIS":"6925.352","LAUNCH_DATE":"2020-09-03","OBJECT_TYPE":"PAYLOAD","ARG_OF_PERICENTER":"58.3116","FILE":"3376758","OBJECT_ID":"2020-062L","RCS_SIZE":"LARGE","EPOCH":"2022-03-27T12:29:36.841920","NORAD_CAT_ID":"46335","TIME_SYSTEM":"UTC","MEAN_MOTION_DOT":"0.00002504","ELEMENT_SET_NO":"999","MEAN_ELEMENT_THEORY":"SGP4","PERIOD":"95.592","PERIAPSIS":"545.880","ECCENTRICITY":"0.00019300","RA_OF_ASC_NODE":"15.2605","REF_FRAME":"TEME","OBJECT_NAME":"STARLINK-1727","REV_AT_EPOCH":"8697","MEAN_MOTION":"15.06398862","GP_ID":"199834874","INCLINATION":"53.0567","COUNTRY_CODE":"US","CENTER_NAME":"EARTH","CLASSIFICATION_TYPE":"U"}];
